{
  "type": "FeatureCollection",
  "features": [
    {
      "type": "Feature",
      "properties": {
        "norad_id": 34833,
        "name": "IRIDIUM 33 DEB",
        "group": "iridium-33-debris",
        "lat": -74.66280420944841,
        "lon": 31.878709064692583,
        "alt_km": 735.107868876039,
        "timestamp": "2025-12-26T05:31:12.891872+00:00",
        "meta_object_name": "IRIDIUM 33 DEB",
        "meta_object_id": "1997-051MH",
        "meta_epoch": "2025-12-25T03:41:55.955040",
        "meta_mean_motion": 14.52445714,
        "meta_eccentricity": 0.00212125,
        "meta_inclination": 86.392,
        "meta_ra_of_asc_node": 45.6427,
        "meta_arg_of_pericenter": 60.5009,
        "meta_mean_anomaly": 2.6128,
        "meta_ephemeris_type": 0,
        "meta_classification_type": "U",
        "meta_norad_cat_id": 34833,
        "meta_element_set_no": 999,
        "meta_rev_at_epoch": 87895,
        "meta_bstar": 0.00071681957,
        "meta_mean_motion_dot": 2.951e-05,
        "meta_mean_motion_ddot": 0,
        "tle_line1": "1 34833U 97051MH  25359.15411985  .00002951  00000+0  71682-3 0  9994",
        "tle_line2": "2 34833  86.3920  45.6427 0021212  60.5009   2.6128 14.52445714878950"
      },
      "geometry": {
        "type": "Point",
        "coordinates": [
          31.878709064692583,
          -74.66280420944841
        ]
      }
    },
    {
      "type": "Feature",
      "properties": {
        "norad_id": 34870,
        "name": "IRIDIUM 33 DEB",
        "group": "iridium-33-debris",
        "lat": -12.311942007564527,
        "lon": -52.90215493984009,
        "alt_km": 655.1815204630266,
        "timestamp": "2025-12-26T05:31:12.891882+00:00",
        "meta_object_name": "IRIDIUM 33 DEB",
        "meta_object_id": "1997-051MQ",
        "meta_epoch": "2025-12-25T19:57:43.380576",
        "meta_mean_motion": 14.76680651,
        "meta_eccentricity": 0.00182287,
        "meta_inclination": 86.3109,
        "meta_ra_of_asc_node": 308.0871,
        "meta_arg_of_pericenter": 137.0164,
        "meta_mean_anomaly": 255.1013,
        "meta_ephemeris_type": 0,
        "meta_classification_type": "U",
        "meta_norad_cat_id": 34870,
        "meta_element_set_no": 999,
        "meta_rev_at_epoch": 89104,
        "meta_bstar": 0.0015785942,
        "meta_mean_motion_dot": 0.00011101,
        "meta_mean_motion_ddot": 0,
        "tle_line1": "1 34870U 97051MQ  25359.83175209  .00011101  00000+0  15786-2 0  9995",
        "tle_line2": "2 34870  86.3109 308.0871 0018228 137.0164 255.1013 14.76680651891044"
      },
      "geometry": {
        "type": "Point",
        "coordinates": [
          -52.90215493984009,
          -12.311942007564527
        ]
      }
    },
    {
      "type": "Feature",
      "properties": {
        "norad_id": 34896,
        "name": "IRIDIUM 33 DEB",
        "group": "iridium-33-debris",
        "lat": 53.08561190178594,
        "lon": -34.464062078819055,
        "alt_km": 674.8192681581304,
        "timestamp": "2025-12-26T05:31:12.891893+00:00",
        "meta_object_name": "IRIDIUM 33 DEB",
        "meta_object_id": "1997-051MY",
        "meta_epoch": "2025-12-24T04:12:44.288640",
        "meta_mean_motion": 14.66381715,
        "meta_eccentricity": 0.00257287,
        "meta_inclination": 86.3299,
        "meta_ra_of_asc_node": 321.5555,
        "meta_arg_of_pericenter": 173.6101,
        "meta_mean_anomaly": 201.3064,
        "meta_ephemeris_type": 0,
        "meta_classification_type": "U",
        "meta_norad_cat_id": 34896,
        "meta_element_set_no": 999,
        "meta_rev_at_epoch": 87787,
        "meta_bstar": 0.00093038371,
        "meta_mean_motion_dot": 5.188e-05,
        "meta_mean_motion_ddot": 0,
        "tle_line1": "1 34896U 97051MY  25358.17551260  .00005188  00000+0  93038-3 0  9999",
        "tle_line2": "2 34896  86.3299 321.5555 0025728 173.6101 201.3064 14.66381715877873"
      },
      "geometry": {
        "type": "Point",
        "coordinates": [
          -34.464062078819055,
          53.08561190178594
        ]
      }
    },
    {
      "type": "Feature",
      "properties": {
        "norad_id": 34926,
        "name": "IRIDIUM 33 DEB",
        "group": "iridium-33-debris",
        "lat": -62.64351068145412,
        "lon": -5.500324873831022,
        "alt_km": 683.3677677276874,
        "timestamp": "2025-12-26T05:31:12.891903+00:00",
        "meta_object_name": "IRIDIUM 33 DEB",
        "meta_object_id": "1997-051NF",
        "meta_epoch": "2025-12-25T18:30:14.349024",
        "meta_mean_motion": 14.55003847,
        "meta_eccentricity": 0.00742448,
        "meta_inclination": 86.1316,
        "meta_ra_of_asc_node": 2.2273,
        "meta_arg_of_pericenter": 247.4767,
        "meta_mean_anomaly": 166.2453,
        "meta_ephemeris_type": 0,
        "meta_classification_type": "U",
        "meta_norad_cat_id": 34926,
        "meta_element_set_no": 999,
        "meta_rev_at_epoch": 86646,
        "meta_bstar": 0.0054586547,
        "meta_mean_motion_dot": 0.0002447,
        "meta_mean_motion_ddot": 0,
        "tle_line1": "1 34926U 97051NF  25359.77099941  .00024470  00000+0  54587-2 0  9993",
        "tle_line2": "2 34926  86.1316   2.2273 0074244 247.4767 166.2453 14.55003847866469"
      },
      "geometry": {
        "type": "Point",
        "coordinates": [
          -5.500324873831022,
          -62.64351068145412
        ]
      }
    },
    {
      "type": "Feature",
      "properties": {
        "norad_id": 34985,
        "name": "IRIDIUM 33 DEB",
        "group": "iridium-33-debris",
        "lat": 13.288464962136281,
        "lon": -129.73567569497283,
        "alt_km": 737.2982612031783,
        "timestamp": "2025-12-26T05:31:12.891913+00:00",
        "meta_object_name": "IRIDIUM 33 DEB",
        "meta_object_id": "1997-051NR",
        "meta_epoch": "2025-12-24T21:41:40.078176",
        "meta_mean_motion": 14.42058691,
        "meta_eccentricity": 0.0022059,
        "meta_inclination": 86.3682,
        "meta_ra_of_asc_node": 51.6896,
        "meta_arg_of_pericenter": 179.2427,
        "meta_mean_anomaly": 307.5347,
        "meta_ephemeris_type": 0,
        "meta_classification_type": "U",
        "meta_norad_cat_id": 34985,
        "meta_element_set_no": 999,
        "meta_rev_at_epoch": 87350,
        "meta_bstar": 0.00065683,
        "meta_mean_motion_dot": 2.182e-05,
        "meta_mean_motion_ddot": 0,
        "tle_line1": "1 34985U 97051NR  25358.90393609  .00002182  00000+0  65683-3 0  9996",
        "tle_line2": "2 34985  86.3682  51.6896 0022059 179.2427 307.5347 14.42058691873501"
      },
      "geometry": {
        "type": "Point",
        "coordinates": [
          -129.73567569497283,
          13.288464962136281
        ]
      }
    },
    {
      "type": "Feature",
      "properties": {
        "norad_id": 35051,
        "name": "IRIDIUM 33 DEB",
        "group": "iridium-33-debris",
        "lat": 10.201554392040913,
        "lon": 3.6453193486147097,
        "alt_km": 729.4635947387478,
        "timestamp": "2025-12-26T05:31:12.891923+00:00",
        "meta_object_name": "IRIDIUM 33 DEB",
        "meta_object_id": "1997-051NX",
        "meta_epoch": "2025-12-22T18:31:37.744896",
        "meta_mean_motion": 14.47639956,
        "meta_eccentricity": 0.0010302,
        "meta_inclination": 86.324,
        "meta_ra_of_asc_node": 4.4893,
        "meta_arg_of_pericenter": 63.2582,
        "meta_mean_anomaly": 296.9674,
        "meta_ephemeris_type": 0,
        "meta_classification_type": "U",
        "meta_norad_cat_id": 35051,
        "meta_element_set_no": 999,
        "meta_rev_at_epoch": 87141,
        "meta_bstar": 0.00060447572,
        "meta_mean_motion_dot": 2.248e-05,
        "meta_mean_motion_ddot": 0,
        "tle_line1": "1 35051U 97051NX  25356.77196464  .00002248  00000+0  60448-3 0  9991",
        "tle_line2": "2 35051  86.3240   4.4893 0010302  63.2582 296.9674 14.47639956871417"
      },
      "geometry": {
        "type": "Point",
        "coordinates": [
          3.6453193486147097,
          10.201554392040913
        ]
      }
    },
    {
      "type": "Feature",
      "properties": {
        "norad_id": 35052,
        "name": "IRIDIUM 33 DEB",
        "group": "iridium-33-debris",
        "lat": 76.52881846889264,
        "lon": 30.23271324668681,
        "alt_km": 748.2528582035129,
        "timestamp": "2025-12-26T05:31:12.891933+00:00",
        "meta_object_name": "IRIDIUM 33 DEB",
        "meta_object_id": "1997-051NY",
        "meta_epoch": "2025-12-25T00:47:01.040352",
        "meta_mean_motion": 14.38506119,
        "meta_eccentricity": 0.00130776,
        "meta_inclination": 86.3301,
        "meta_ra_of_asc_node": 15.205,
        "meta_arg_of_pericenter": 50.4625,
        "meta_mean_anomaly": 309.7726,
        "meta_ephemeris_type": 0,
        "meta_classification_type": "U",
        "meta_norad_cat_id": 35052,
        "meta_element_set_no": 999,
        "meta_rev_at_epoch": 87452,
        "meta_bstar": 0.00019003838,
        "meta_mean_motion_dot": 6.01e-06,
        "meta_mean_motion_ddot": 0,
        "tle_line1": "1 35052U 97051NY  25359.03265093  .00000601  00000+0  19004-3 0  9992",
        "tle_line2": "2 35052  86.3301  15.2050 0013077  50.4625 309.7726 14.38506119874529"
      },
      "geometry": {
        "type": "Point",
        "coordinates": [
          30.23271324668681,
          76.52881846889264
        ]
      }
    }
  ]
}